NORAD_CAT_ID,OBJECT_NAME,OBJECT_TYPE,EPOCH,MEAN_MOTION,ECCENTRICITY,INCLINATION,RA_OF_ASC_NODE,ARG_OF_PERICENTER,MEAN_ANOMALY,BSTAR,MEAN_MOTION_DOT,MEAN_MOTION_DDOT,TLE_LINE0,TLE_LINE1,TLE_LINE2,SEMIMAJOR_AXIS,PERIOD,APOGEE,PERIGEE,DECAYED
53268.0,STARLINK-4109,PAYLOAD,2022-10-09 14:00:01,15.08844932,0.0001481,53.2183,32.5833,59.7778,107.5047,-0.00045256,-7.484e-05,0.0,0 STARLINK-4109,1 53268U 22086AC  22282.58334491 -.00007484  00000-0 -45256-3 0  9995,2 53268  53.2183  32.5833 0001481  59.7778 107.5047 15.08844932  1301,6917.865,95.437,540.755,538.706,0.0
53268.0,STARLINK-4109,PAYLOAD,2022-10-09 22:00:00,15.08849946,0.0001526,53.2177,31.0921,53.9268,124.9342,-0.0020745,-0.00033161,0.0,0 STARLINK-4109,1 53268U 22086AC  22282.91667824 -.00033161  00000-0 -20745-2 0  9997,2 53268  53.2177  31.0921 0001526  53.9268 124.9342 15.08849946 12668,6917.85,95.437,540.771,538.659,0.0
53268.0,STARLINK-4109,PAYLOAD,2022-10-10 14:00:01,15.08836318,0.0001499,53.2174,28.1036,53.4315,148.6089,3.9561e-05,3.42e-06,0.0,0 STARLINK-4109,1 53268U 22086AC  22283.58334491  .00000342  00000-0  39561-4 0  9993,2 53268  53.2174  28.1036 0001499  53.4315 148.6089 15.08836318  1305,6917.892,95.438,540.794,538.72,0.0
53268.0,STARLINK-4109,PAYLOAD,2022-10-10 22:00:01,15.08922065,0.0001556,53.2176,26.6024,55.9308,157.8322,-0.016587,-0.00255608,0.0,0 STARLINK-4109,1 53268U 22086AC  22283.91668981 -.00255608  00000-0 -16587-1 0  9993,2 53268  53.2176  26.6024 0001556  55.9308 157.8322 15.08922065 12815,6917.63,95.432,540.571,538.418,0.0
53268.0,STARLINK-4109,PAYLOAD,2022-10-11 06:00:00,15.08784705,0.000138,53.2177,25.1013,62.4047,162.8756,0.0035009999999999,0.00055787,0.0,0 STARLINK-4109,1 53268U 22086AC  22284.25001157  .00055787  00000-0  35010-2 0  9994,2 53268  53.2177  25.1013 0001380  62.4047 162.8756 15.08784705 12865,6918.049,95.441,540.869,538.96,0.0
53268.0,STARLINK-4109,PAYLOAD,2022-10-11 14:00:01,15.08814898,0.0001553,53.2177,23.61,61.2717,175.5606,0.0018141,0.00028681,0.0,0 STARLINK-4109,1 53268U 22086AC  22284.58334491  .00028681  00000-0  18141-2 0  9999,2 53268  53.2177  23.6100 0001553  61.2717 175.5606 15.08814898  1307,6917.956999999999,95.439,540.896,538.748,0.0
53268.0,STARLINK-4109,PAYLOAD,2022-10-11 22:00:00,15.08846852,0.0001520999999999,53.218,22.1091,54.8398,193.5519,-0.0032444,-0.00051563,0.0,0 STARLINK-4109,1 53268U 22086AC  22284.91667824 -.00051563  00000-0 -32444-2 0  9994,2 53268  53.2180  22.1091 0001521  54.8398 193.5519 15.08846852  1300,6917.859,95.437,540.7769999999998,538.672,0.0
53268.0,STARLINK-4109,PAYLOAD,2022-10-12 06:00:00,15.08820396,0.0001538,53.2179,20.6125,61.7393,198.2434,0.0034774999999999,0.00055462,0.0,0 STARLINK-4109,1 53268U 22086AC  22285.25001157  .00055462  00000-0  34775-2 0  9992,2 53268  53.2179  20.6125 0001538  61.7393 198.2434 15.08820396 13013,6917.94,95.439,540.869,538.741,0.0
53268.0,STARLINK-4109,PAYLOAD,2022-10-12 14:00:01,15.08865875,0.0001594,53.2179,19.1211,57.8896,213.6853,-0.0022546,-0.00036016,0.0,0 STARLINK-4109,1 53268U 22086AC  22285.58334491 -.00036016  00000-0 -22546-2 0  9997,2 53268  53.2179  19.1211 0001594  57.8896 213.6853 15.08865875  1305,6917.801,95.436,540.769,538.564,0.0
53268.0,STARLINK-4109,PAYLOAD,2022-10-12 22:00:00,15.0884221,0.0001315999999999,53.2175,17.6266,65.1826,218.0025,-0.00062155,-0.00010167,0.0,0 STARLINK-4109,1 53268U 22086AC  22285.91667824 -.00010167  00000-0 -62155-3 0  9993,2 53268  53.2175  17.6266 0001316  65.1826 218.0025 15.08842210  1309,6917.874,95.437,540.649,538.828,0.0
53268.0,STARLINK-4109,PAYLOAD,2022-10-13 14:00:01,15.08950252,0.0001664,53.218,14.6342,55.2601,251.0418,-0.0098306,-0.00153884,0.0,0 STARLINK-4109,1 53268U 22086AC  22286.58334491 -.00153884  00000-0 -98306-2 0  9998,2 53268  53.2180  14.6342 0001664  55.2601 251.0418 15.08950252  1303,6917.543000000002,95.431,540.559,538.257,0.0
53268.0,STARLINK-4109,PAYLOAD,2022-10-13 22:00:00,15.0883849,0.0001665,53.2174,13.1388,56.4776,261.4852,-0.00024774,-4.229e-05,0.0,0 STARLINK-4109,1 53268U 22086AC  22286.91667824 -.00004229  00000-0 -24774-3 0  9991,2 53268  53.2174  13.1388 0001665  56.4776 261.4852 15.08838490  1303,6917.885,95.438,540.9019999999998,538.5980000000002,0.0
53268.0,STARLINK-4109,PAYLOAD,2022-10-14 06:00:00,15.08818069,0.0001519,53.2183,11.6372,59.9539,269.5665,0.0050902,0.00081613,0.0,0 STARLINK-4109,1 53268U 22086AC  22287.25001157  .00081613  00000-0  50902-2 0  9991,2 53268  53.2183  11.6372 0001519  59.9539 269.5665 15.08818069 13328,6917.946999999999,95.439,540.863,538.762,0.0
53268.0,STARLINK-4109,PAYLOAD,2022-10-14 14:00:01,15.08898588,0.0001675999999999,53.218,10.1457,52.9409,288.1741,-0.0058937,-0.00093026,0.0,0 STARLINK-4109,1 53268U 22086AC  22287.58334491 -.00093026  00000-0 -58937-2 0  9996,2 53268  53.2180  10.1457 0001676  52.9409 288.1741 15.08898588  1307,6917.701,95.434,540.726,538.4069999999998,0.0
53268.0,STARLINK-4109,PAYLOAD,2022-10-14 16:00:00,15.08849736,0.0001668,53.2176,9.7723,52.1377,21.9018,-0.0013201999999999,-0.00021243,0.0,0 STARLINK-4109,1 53268U 22086AC  22287.66667824 -.00021243  00000-0 -13202-2 0  9992,2 53268  53.2176   9.7723 0001668  52.1377  21.9018 15.08849736 13381,6917.851,95.437,540.87,538.562,0.0
53268.0,STARLINK-4109,PAYLOAD,2022-10-14 20:00:01,15.08838101,0.0001614,53.2172,9.0241,51.4901,208.3512,-0.00017822,-3.123e-05,0.0,0 STARLINK-4109,1 53268U 22086AC  22287.83334491 -.00003123  00000-0 -17822-3 0  9992,2 53268  53.2172   9.0241 0001614  51.4901 208.3512 15.08838101  1304,6917.886,95.438,540.868,538.635,0.0
53268.0,STARLINK-4109,PAYLOAD,2022-10-15 14:00:01,15.08872717,0.0001557,53.2187,5.6506,56.6699,319.2028,-0.0010902,-0.00017612,0.0,0 STARLINK-4109,1 53268U 22086AC  22288.58334491 -.00017612  00000-0 -10902-2 0  9994,2 53268  53.2187   5.6506 0001557  56.6699 319.2028 15.08872717  1308,6917.78,95.435,540.722,538.568,0.0
53268.0,STARLINK-4109,PAYLOAD,2022-10-15 22:00:01,15.08871028,0.000146,53.2184,4.1529,60.1933,327.3725,-0.0051004,-0.00080621,0.0,0 STARLINK-4109,1 53268U 22086AC  22288.91668981 -.00080621  00000-0 -51004-2 0  9993,2 53268  53.2184   4.1529 0001460  60.1933 327.3725 15.08871028  1306,6917.786,95.436,540.661,538.641,0.0
53268.0,STARLINK-4109,PAYLOAD,2022-10-16 14:00:01,15.08816723,0.000161,53.2182,1.1628,58.5217,352.1605,0.0021213,0.00033612,0.0,0 STARLINK-4109,1 53268U 22086AC  22289.58334491  .00033612  00000-0  21213-2 0  9998,2 53268  53.2182   1.1628 0001610  58.5217 352.1605 15.08816723  1308,6917.9519999999975,95.439,540.93,538.703,0.0
53268.0,STARLINK-4109,PAYLOAD,2022-10-16 22:00:00,15.08844733,0.0001488,53.2182,359.6648,62.8075,359.4529,-0.00058153,-9.532e-05,0.0,0 STARLINK-4109,1 53268U 22086AC  22289.91667824 -.00009532  00000-0 -58153-3 0  9994,2 53268  53.2182 359.6648 0001488  62.8075 359.4529 15.08844733 13720,6917.866,95.437,540.76,538.702,0.0
53268.0,STARLINK-4109,PAYLOAD,2022-10-17 14:00:01,15.08816862,0.0001683,53.2178,356.6739,60.9883,24.4896,0.0026741,0.000425,0.0,0 STARLINK-4109,1 53268U 22086AC  22290.58334491  .00042500  00000-0  26741-2 0  9997,2 53268  53.2178 356.6739 0001683  60.9883  24.4896 15.08816862  1305,6917.951,95.439,540.98,538.6519999999998,0.0
53268.0,STARLINK-4109,PAYLOAD,2022-10-17 22:00:00,15.088548499999998,0.0001543,53.218,355.1759,65.3703,31.6848,-0.0021135999999999,-0.00033782,0.0,0 STARLINK-4109,1 53268U 22086AC  22290.91667824 -.00033782  00000-0 -21136-2 0  9990,2 53268  53.2180 355.1759 0001543  65.3703  31.6848 15.08854850 13870,6917.835,95.437,540.7669999999998,538.633,0.0
53268.0,STARLINK-4109,PAYLOAD,2022-10-18 14:00:01,15.08804545,0.0001564,53.2177,352.1838,59.8447,60.3873,0.0028680999999999,0.00045609,0.0,0 STARLINK-4109,1 53268U 22086AC  22291.58334491  .00045609  00000-0  28681-2 0  9996,2 53268  53.2177 352.1838 0001564  59.8447  60.3873 15.08804545  1305,6917.989000000001,95.44,540.936,538.7719999999998,0.0
53268.0,STARLINK-4109,PAYLOAD,2022-10-18 22:00:00,15.08832134,0.0001453,53.2177,350.6859,65.2591,66.5476,0.000148,2.068e-05,0.0,0 STARLINK-4109,1 53268U 22086AC  22291.91667824  .00002068  00000-0  14800-3 0  9993,2 53268  53.2177 350.6859 0001453  65.2591  66.5476 15.08832134 14024,6917.904,95.438,540.775,538.764,0.0
53268.0,STARLINK-4109,PAYLOAD,2022-10-19 14:00:01,15.0882419,0.0001609,53.2178,347.6948,58.2244,96.7756,0.0032936999999999,0.00052499,0.0,0 STARLINK-4109,1 53268U 22086AC  22292.58334491  .00052499  00000-0  32937-2 0  9991,2 53268  53.2178 347.6948 0001609  58.2244  96.7756 15.08824190  1306,6917.929,95.439,540.9069999999998,538.681,0.0
53268.0,STARLINK-4109,PAYLOAD,2022-10-19 22:00:00,15.08836357,0.0001539,53.2175,346.2033,64.5135,102.1105,4.9983e-05,5.08e-06,0.0,0 STARLINK-4109,1 53268U 22086AC  22292.91667824  .00000508  00000-0  49983-4 0  9992,2 53268  53.2175 346.2033 0001539  64.5135 102.1105 15.08836357  1302,6917.892,95.438,540.821,538.692,0.0
53268.0,STARLINK-4109,PAYLOAD,2022-10-20 14:00:01,15.08817964,0.000161,53.2178,343.2069,54.9941,134.8082,0.003436,0.00054788,0.0,0 STARLINK-4109,1 53268U 22086AC  22293.58334491  .00054788  00000-0  34360-2 0  9997,2 53268  53.2178 343.2069 0001610  54.9941 134.8082 15.08817964  1308,6917.948,95.439,540.927,538.6990000000002,0.0
53268.0,STARLINK-4109,PAYLOAD,2022-10-20 22:00:00,15.08837821,0.0001499,53.2183,341.7086,61.71100000000001,139.6792,-0.0017534,-0.00028083,0.0,0 STARLINK-4109,1 53268U 22086AC  22293.91667824 -.00028083  00000-0 -17534-2 0  9998,2 53268  53.2183 341.7086 0001499  61.7110 139.6792 15.08837821  1300,6917.887,95.438,540.789,538.715,0.0
53268.0,STARLINK-4109,PAYLOAD,2022-10-21 06:00:00,15.08842138,0.0001623,53.2184,340.2128,65.0906,147.8867,-0.001007,-0.0001628,0.0,0 STARLINK-4109,1 53268U 22086AC  22294.25001157 -.00016280  00000-0 -10070-2 0  9991,2 53268  53.2184 340.2128 0001623  65.0906 147.8867 15.08842138 14373,6917.874,95.437,540.862,538.616,0.0
